IRIDIUM 150             
1 43257U 18030J   25222.95730939 -.00000009  00000+0 -10112-4 0  9990
2 43257  86.3917  60.1514 0002022  95.7701 264.3726 14.34217020385694
IRIDIUM 143             
1 43258U 18030K   25223.07781803  .00000104  00000+0  29916-4 0  9997
2 43258  86.3923  60.1816 0002252 100.9403 259.2046 14.34217648385649
IRIDIUM 161             
1 43478U 18047C   25222.98282155  .00000191  00000+0  50916-4 0  9994
2 43478  86.4477 218.0342 0002346  83.6060 276.5408 14.43279694380396
IRIDIUM 152             
1 43479U 18047D   25222.98078024  .00000146  00000+0  44994-4 0  9992
2 43479  86.3952 217.8957 0002194  86.7384 273.4063 14.34218266378025
IRIDIUM 147             
1 43480U 18047E   25223.26618280  .00000047  00000+0  98841-5 0  9991
2 43480  86.3958 217.7764 0002422  86.0947 274.0525 14.34218104378065
IRIDIUM 110             
1 43481U 18047F   25223.48183068  .00000021  00000+0  31847-6 0  9993
2 43481  86.3960 217.7700 0002292  76.7035 283.4416 14.34217806378081
IRIDIUM 162             
1 43482U 18047G   25223.25384500  .00000177  00000+0  46711-4 0  9999
2 43482  86.4480 217.8157 0002125  82.3229 277.8213 14.43281928380429
IRIDIUM 160             
1 43569U 18061A   25223.35789938  .00000034  00000+0  52405-5 0  9996
2 43569  86.4015 186.2456 0002296  80.8096 279.3359 14.34217786368968
